EUTELSAT 21B            
1 38992U 12062B   25270.86384399  .00000134  00000+0  00000+0 0  9994
2 38992   0.0696 357.6537 0002842 193.5733 148.2447  1.00270413 47196
EUTELSAT 70B            
1 39020U 12069A   25270.92753336 -.00000039  00000+0  00000+0 0  9997
2 39020   0.0675  10.1698 0004049 180.8075 220.3928  1.00271808 46873
EUTELSAT 117 WEST A     
1 39122U 13012A   25270.62238961 -.00000009  00000+0  00000+0 0  9995
2 39122   0.0213  77.8764 0002930 113.0636 282.9895  1.00272926 45807
EUTELSAT 7B             
1 39163U 13022A   25270.93234968  .00000053  00000+0  00000+0 0  9996
2 39163   0.0675   1.2259 0000797 357.9525 350.4337  1.00271664 45326
EXPRESS-AT1             
1 39612U 14010A   25271.00269564  .00000083  00000+0  00000+0 0  9995
2 39612   0.0122 183.8431 0000857 274.1562 326.0259  1.00272105 42183
EXPRESS-AT2             
1 39613U 14010B   25271.17263917 -.00000277  00000+0  00000+0 0  9996
2 39613   0.0163 220.2166 0000194 154.2947 194.6923  1.00270582 41878
EUTELSAT 3B             
1 39773U 14030A   25270.93156966  .00000025  00000+0  00000+0 0  9993
2 39773   0.0640   9.4958 0004317 172.3451 163.5906  1.00272741 41430
EUTELSAT 115 WEST B     
1 40425U 15010B   25270.62273627 -.00000020  00000+0  00000+0 0  9994
2 40425   0.0152  35.5145 0000269 227.4159 213.0275  1.00270863 38766
